{
  "type": "FeatureCollection",
  "features": [
    {
      "type": "Feature",
      "properties": {
        "norad_id": 24946,
        "name": "IRIDIUM 33",
        "group": "iridium-33-debris",
        "lat": -28.28310740896084,
        "lon": -106.4383389713175,
        "alt_km": 776.8160518977884,
        "timestamp": "2025-12-04T15:47:54.483301+00:00",
        "meta_object_name": "IRIDIUM 33",
        "meta_object_id": "1997-051C",
        "meta_epoch": "2025-12-04T06:27:47.288448",
        "meta_mean_motion": 14.35028286,
        "meta_eccentricity": 0.00061908,
        "meta_inclination": 86.3871,
        "meta_ra_of_asc_node": 71.7767,
        "meta_arg_of_pericenter": 232.9951,
        "meta_mean_anomaly": 127.0679,
        "meta_ephemeris_type": 0,
        "meta_classification_type": "U",
        "meta_norad_cat_id": 24946,
        "meta_element_set_no": 999,
        "meta_rev_at_epoch": 47713,
        "meta_bstar": 0.00025844364,
        "meta_mean_motion_dot": 7.55e-06,
        "meta_mean_motion_ddot": 0,
        "tle_line1": "1 24946U 97051C   25338.26929732  .00000755  00000+0  25844-3 0  9990",
        "tle_line2": "2 24946  86.3871  71.7767 0006190 232.9951 127.0679 14.35028286477135"
      },
      "geometry": {
        "type": "Point",
        "coordinates": [
          -106.4383389713175,
          -28.28310740896084
        ]
      }
    },
    {
      "type": "Feature",
      "properties": {
        "norad_id": 33773,
        "name": "IRIDIUM 33 DEB",
        "group": "iridium-33-debris",
        "lat": -72.80004735069755,
        "lon": 52.28356466998167,
        "alt_km": 758.8175873229738,
        "timestamp": "2025-12-04T15:47:54.483343+00:00",
        "meta_object_name": "IRIDIUM 33 DEB",
        "meta_object_id": "1997-051L",
        "meta_epoch": "2025-12-04T07:49:03.732960",
        "meta_mean_motion": 14.4322903,
        "meta_eccentricity": 0.00115857,
        "meta_inclination": 86.4014,
        "meta_ra_of_asc_node": 64.1543,
        "meta_arg_of_pericenter": 172.2556,
        "meta_mean_anomaly": 187.8826,
        "meta_ephemeris_type": 0,
        "meta_classification_type": "U",
        "meta_norad_cat_id": 33773,
        "meta_element_set_no": 999,
        "meta_rev_at_epoch": 88226,
        "meta_bstar": 0.00068255164,
        "meta_mean_motion_dot": 2.316e-05,
        "meta_mean_motion_ddot": 0,
        "tle_line1": "1 33773U 97051L   25338.32573765  .00002316  00000+0  68255-3 0  9994",
        "tle_line2": "2 33773  86.4014  64.1543 0011585 172.2556 187.8826 14.43229030882263"
      },
      "geometry": {
        "type": "Point",
        "coordinates": [
          52.28356466998167,
          -72.80004735069755
        ]
      }
    },
    {
      "type": "Feature",
      "properties": {
        "norad_id": 33775,
        "name": "IRIDIUM 33 DEB",
        "group": "iridium-33-debris",
        "lat": 61.79678751283007,
        "lon": 59.812383516255046,
        "alt_km": 752.2767654850131,
        "timestamp": "2025-12-04T15:47:54.483360+00:00",
        "meta_object_name": "IRIDIUM 33 DEB",
        "meta_object_id": "1997-051N",
        "meta_epoch": "2025-12-04T05:45:50.599872",
        "meta_mean_motion": 14.41440415,
        "meta_eccentricity": 0.00133051,
        "meta_inclination": 86.3643,
        "meta_ra_of_asc_node": 53.1816,
        "meta_arg_of_pericenter": 181.5813,
        "meta_mean_anomaly": 232.3951,
        "meta_ephemeris_type": 0,
        "meta_classification_type": "U",
        "meta_norad_cat_id": 33775,
        "meta_element_set_no": 999,
        "meta_rev_at_epoch": 88018,
        "meta_bstar": 0.00068123512,
        "meta_mean_motion_dot": 2.23e-05,
        "meta_mean_motion_ddot": 0,
        "tle_line1": "1 33775U 97051N   25338.24016898  .00002230  00000+0  68124-3 0  9996",
        "tle_line2": "2 33775  86.3643  53.1816 0013305 181.5813 232.3951 14.41440415880188"
      },
      "geometry": {
        "type": "Point",
        "coordinates": [
          59.812383516255046,
          61.79678751283007
        ]
      }
    },
    {
      "type": "Feature",
      "properties": {
        "norad_id": 33776,
        "name": "IRIDIUM 33 DEB",
        "group": "iridium-33-debris",
        "lat": 25.657344836029534,
        "lon": 85.90051669611474,
        "alt_km": 773.0229543427431,
        "timestamp": "2025-12-04T15:47:54.483373+00:00",
        "meta_object_name": "IRIDIUM 33 DEB",
        "meta_object_id": "1997-051P",
        "meta_epoch": "2025-12-04T07:34:38.292672",
        "meta_mean_motion": 14.38210128,
        "meta_eccentricity": 0.00134368,
        "meta_inclination": 86.4037,
        "meta_ra_of_asc_node": 84.3132,
        "meta_arg_of_pericenter": 219.4999,
        "meta_mean_anomaly": 193.8415,
        "meta_ephemeris_type": 0,
        "meta_classification_type": "U",
        "meta_norad_cat_id": 33776,
        "meta_element_set_no": 999,
        "meta_rev_at_epoch": 87961,
        "meta_bstar": 0.00060641672,
        "meta_mean_motion_dot": 1.862e-05,
        "meta_mean_motion_ddot": 0,
        "tle_line1": "1 33776U 97051P   25338.31572098  .00001862  00000+0  60642-3 0  9991",
        "tle_line2": "2 33776  86.4037  84.3132 0013436 219.4999 193.8415 14.38210128879619"
      },
      "geometry": {
        "type": "Point",
        "coordinates": [
          85.90051669611474,
          25.657344836029534
        ]
      }
    },
    {
      "type": "Feature",
      "properties": {
        "norad_id": 33777,
        "name": "IRIDIUM 33 DEB",
        "group": "iridium-33-debris",
        "lat": 29.50253335228117,
        "lon": 40.771690106448716,
        "alt_km": 707.0674041016437,
        "timestamp": "2025-12-04T15:47:54.483386+00:00",
        "meta_object_name": "IRIDIUM 33 DEB",
        "meta_object_id": "1997-051Q",
        "meta_epoch": "2025-12-04T04:06:47.905056",
        "meta_mean_motion": 14.5551004,
        "meta_eccentricity": 0.0005147,
        "meta_inclination": 86.3799,
        "meta_ra_of_asc_node": 38.9304,
        "meta_arg_of_pericenter": 289.5346,
        "meta_mean_anomaly": 70.5306,
        "meta_ephemeris_type": 0,
        "meta_classification_type": "U",
        "meta_norad_cat_id": 33777,
        "meta_element_set_no": 999,
        "meta_rev_at_epoch": 88409,
        "meta_bstar": 0.0021194,
        "meta_mean_motion_dot": 9.25e-05,
        "meta_mean_motion_ddot": 0,
        "tle_line1": "1 33777U 97051Q   25338.17138779  .00009250  00000+0  21194-2 0  9997",
        "tle_line2": "2 33777  86.3799  38.9304 0005147 289.5346  70.5306 14.55510040884097"
      },
      "geometry": {
        "type": "Point",
        "coordinates": [
          40.771690106448716,
          29.50253335228117
        ]
      }
    },
    {
      "type": "Feature",
      "properties": {
        "norad_id": 33850,
        "name": "IRIDIUM 33 DEB",
        "group": "iridium-33-debris",
        "lat": 23.191684915218335,
        "lon": 35.224593038307844,
        "alt_km": 758.8445401444906,
        "timestamp": "2025-12-04T15:47:54.483399+00:00",
        "meta_object_name": "IRIDIUM 33 DEB",
        "meta_object_id": "1997-051T",
        "meta_epoch": "2025-12-04T06:00:53.789184",
        "meta_mean_motion": 14.42119961,
        "meta_eccentricity": 0.00113089,
        "meta_inclination": 86.3424,
        "meta_ra_of_asc_node": 33.8294,
        "meta_arg_of_pericenter": 187.7158,
        "meta_mean_anomaly": 240.6619,
        "meta_ephemeris_type": 0,
        "meta_classification_type": "U",
        "meta_norad_cat_id": 33850,
        "meta_element_set_no": 999,
        "meta_rev_at_epoch": 88030,
        "meta_bstar": 0.00078145382,
        "meta_mean_motion_dot": 2.59e-05,
        "meta_mean_motion_ddot": 0,
        "tle_line1": "1 33850U 97051T   25338.25062256  .00002590  00000+0  78145-3 0  9993",
        "tle_line2": "2 33850  86.3424  33.8294 0011308 187.7158 240.6619 14.42119961880302"
      },
      "geometry": {
        "type": "Point",
        "coordinates": [
          35.224593038307844,
          23.191684915218335
        ]
      }
    },
    {
      "type": "Feature",
      "properties": {
        "norad_id": 33853,
        "name": "IRIDIUM 33 DEB",
        "group": "iridium-33-debris",
        "lat": -37.116991660086,
        "lon": 176.39115403163797,
        "alt_km": 793.4886233495972,
        "timestamp": "2025-12-04T15:47:54.483412+00:00",
        "meta_object_name": "IRIDIUM 33 DEB",
        "meta_object_id": "1997-051W",
        "meta_epoch": "2025-12-04T01:16:34.217184",
        "meta_mean_motion": 13.98972091,
        "meta_eccentricity": 0.02067962,
        "meta_inclination": 86.0003,
        "meta_ra_of_asc_node": 353.6212,
        "meta_arg_of_pericenter": 262.6777,
        "meta_mean_anomaly": 150.4676,
        "meta_ephemeris_type": 0,
        "meta_classification_type": "U",
        "meta_norad_cat_id": 33853,
        "meta_element_set_no": 999,
        "meta_rev_at_epoch": 85224,
        "meta_bstar": 0.0041696417,
        "meta_mean_motion_dot": 7.249e-05,
        "meta_mean_motion_ddot": 0,
        "tle_line1": "1 33853U 97051W   25338.05317381  .00007249  00000+0  41696-2 0  9992",
        "tle_line2": "2 33853  86.0003 353.6212 0206796 262.6777 150.4676 13.98972091852249"
      },
      "geometry": {
        "type": "Point",
        "coordinates": [
          176.39115403163797,
          -37.116991660086
        ]
      }
    }
  ]
}